SL-14 R/B               
1 16792U 86046B   26048.60069361  .00000421  00000+0  45813-4 0  9991
2 16792  82.4799  99.1679 0021629 296.0029  63.8959 14.85570064123427
SL-14 R/B               
1 16882U 86055B   26048.74184014  .00000490  00000+0  53594-4 0  9990
2 16882  82.5232 145.4188 0019865  41.9489  73.6666 14.85621876116408
AJISAI (EGS)            
1 16908U 86061A   26048.96945673 -.00000096  00000+0  12107-4 0  9994
2 16908  50.0083 153.9876 0011233 236.1894 235.6024 12.44515329465546
COSMOS 1812             
1 17295U 87003A   26048.94404488  .00377154  60012-4  67953-3 0  9996
2 17295  82.4747 218.1437 0003105 300.5291  59.5680 16.01585656141308
SL-14 R/B               
1 17567U 87024B   26048.64142839  .00000429  00000+0  46128-4 0  9993
2 17567  82.5275 111.6086 0017371 331.5630  28.4637 14.86112378 85150
COSMOS 1833             
1 17589U 87027A   26048.33131080 -.00000045  00000+0  15188-5 0  9990
2 17589  70.9227   8.8029 0024861 242.2527 117.6073 14.13057385  7448
SL-16 R/B               
1 17590U 87027B   26048.78746380  .00000214  00000+0  12988-3 0  9996
2 17590  71.0041 318.4341 0004549 178.1954 181.9187 14.17163783 12524
SL-14 R/B               
1 17912U 87038B   26048.76079978  .00000477  00000+0  52584-4 0  9994
2 17912  82.5036 315.5785 0017991 227.6411 132.3282 14.85350025 76276
COSMOS 1844             
1 17973U 87041A   26048.52949792  .00000343  00000+0  20293-3 0  9992
2 17973  70.8980  76.7001 0029049  50.0513 310.3154 14.14548891   732
SL-14 R/B               
1 18153U 87055B   26048.33711134  .00000581  00000+0  64092-4 0  9994
2 18153  82.5010   8.2086 0022326  81.3555 279.0190 14.85603165 66911
COSMOS 1867             
1 18187U 87060A   26048.25125627 -.00000038  00000+0  23505-4 0  9996
2 18187  65.0122   3.9400 0014172 277.4997  82.4477 14.31499693 17019
SL-14 R/B               
1 18749U 88001B   26048.53306587  .00000485  00000+0  53360-4 0  9990
2 18749  82.5117 214.3171 0016868 308.1690  51.8006 14.85501778 39031
